{
"type": "FeatureCollection",
"name": "ku_campus",
"crs": { "type": "name", "properties": { "name": "urn:ogc:def:crs:OGC:1.3:CRS84" } },
"features": [
{ "type": "Feature", "properties": { "bbox_west": 127.0237965, "bbox_south": 37.5815475, "bbox_east": 127.0361597, "bbox_north": 37.5944954, "place_id": 222730563, "osm_type": "way", "osm_id": 26253960, "lat": 37.5880378, "lon": 127.0323927, "class": "amenity", "type": "university", "place_rank": 30, "importance": 0.57934296090970028, "addresstype": "amenity", "name": "Korea University Seoul Campus", "display_name": "Korea University Seoul Campus, 145, Anam-ro, Anam-dong 5-ga, Anam-dong, Seongbuk-gu, Seoul, 02841, South Korea" }, "geometry": { "type": "Polygon", "coordinates": [ [ [ 127.0237965, 37.5850023 ], [ 127.0238097, 37.5847409 ], [ 127.0238648, 37.5846221 ], [ 127.0239704, 37.5844652 ], [ 127.0240635, 37.5842073 ], [ 127.0240668, 37.5840563 ], [ 127.0242526, 37.5834202 ], [ 127.0244332, 37.5832313 ], [ 127.0245138, 37.5831848 ], [ 127.0246901, 37.582736 ], [ 127.0248181, 37.5826804 ], [ 127.0251899, 37.5826745 ], [ 127.0256016, 37.5826412 ], [ 127.0259551, 37.5824093 ], [ 127.0259795, 37.5821499 ], [ 127.0259579, 37.5818175 ], [ 127.0263022, 37.5817068 ], [ 127.0262638, 37.5816021 ], [ 127.0264996, 37.5815475 ], [ 127.0266515, 37.581699 ], [ 127.0267208, 37.5818946 ], [ 127.026735, 37.5821032 ], [ 127.0268168, 37.5821425 ], [ 127.0269139, 37.5822022 ], [ 127.0271076, 37.582211 ], [ 127.0271168, 37.5822809 ], [ 127.0276403, 37.5822822 ], [ 127.0278078, 37.5825921 ], [ 127.0279143, 37.5826438 ], [ 127.0280279, 37.5826099 ], [ 127.0281894, 37.5824773 ], [ 127.0282523, 37.5824885 ], [ 127.0282707, 37.5825243 ], [ 127.0282333, 37.5825227 ], [ 127.0281065, 37.5826384 ], [ 127.0280866, 37.5826754 ], [ 127.0280985, 37.5827698 ], [ 127.0282452, 37.5831784 ], [ 127.028293, 37.5833982 ], [ 127.0285624, 37.5833946 ], [ 127.0285805, 37.5835137 ], [ 127.0286409, 37.5835631 ], [ 127.0288078, 37.5836277 ], [ 127.0288808, 37.5836241 ], [ 127.0288767, 37.5837413 ], [ 127.0288212, 37.5853665 ], [ 127.0286039, 37.5853876 ], [ 127.0282942, 37.5858002 ], [ 127.0284416, 37.5858626 ], [ 127.0284417, 37.5858926 ], [ 127.0281838, 37.585903 ], [ 127.0281252, 37.5860212 ], [ 127.0279888, 37.5860177 ], [ 127.0279798, 37.5861321 ], [ 127.0283555, 37.5863894 ], [ 127.0286723, 37.5863987 ], [ 127.0287819, 37.5865226 ], [ 127.028735, 37.5866062 ], [ 127.0287319, 37.5867814 ], [ 127.028681, 37.5868104 ], [ 127.0287158, 37.5869346 ], [ 127.0287181, 37.5870459 ], [ 127.0287188, 37.5872089 ], [ 127.0286616, 37.5872797 ], [ 127.0286598, 37.5873774 ], [ 127.0287197, 37.5874399 ], [ 127.0285826, 37.587936 ], [ 127.028546, 37.5880905 ], [ 127.0284838, 37.58819 ], [ 127.0283955, 37.5882761 ], [ 127.0282987, 37.5883588 ], [ 127.0280128, 37.588567 ], [ 127.0276882, 37.5887628 ], [ 127.0275768, 37.5890048 ], [ 127.0274531, 37.5892419 ], [ 127.0274181, 37.5892984 ], [ 127.0273841, 37.589377 ], [ 127.0272955, 37.5896985 ], [ 127.0272765, 37.5897337 ], [ 127.0272559, 37.5897635 ], [ 127.027224, 37.5897892 ], [ 127.0272463, 37.5897957 ], [ 127.0272778, 37.5898129 ], [ 127.0273309, 37.5898369 ], [ 127.0273445, 37.5899097 ], [ 127.0273249, 37.5899811 ], [ 127.0273571, 37.5901882 ], [ 127.0274906, 37.5902322 ], [ 127.0274981, 37.5903311 ], [ 127.027469, 37.5904946 ], [ 127.0276349, 37.5907817 ], [ 127.0279182, 37.5908169 ], [ 127.0282756, 37.5906811 ], [ 127.0284224, 37.5906795 ], [ 127.0285233, 37.5906129 ], [ 127.0291553, 37.590469 ], [ 127.0293224, 37.5904242 ], [ 127.0294262, 37.5905376 ], [ 127.0296078, 37.5904133 ], [ 127.0295736, 37.5903648 ], [ 127.0298186, 37.5902739 ], [ 127.0301161, 37.5902572 ], [ 127.0302735, 37.5902672 ], [ 127.0303899, 37.5904482 ], [ 127.0304328, 37.5904227 ], [ 127.0305642, 37.5905715 ], [ 127.0306474, 37.590631 ], [ 127.0307198, 37.5906692 ], [ 127.0307842, 37.590733 ], [ 127.030793, 37.5907761 ], [ 127.0306489, 37.5908712 ], [ 127.0306843, 37.5910099 ], [ 127.0307386, 37.5910986 ], [ 127.0308344, 37.5911278 ], [ 127.0309156, 37.5911304 ], [ 127.031044, 37.5910524 ], [ 127.0311245, 37.5910349 ], [ 127.0311114, 37.5909562 ], [ 127.031223, 37.5908111 ], [ 127.0310939, 37.5906241 ], [ 127.0310652, 37.5906177 ], [ 127.0308615, 37.5907281 ], [ 127.0307788, 37.5906331 ], [ 127.030921, 37.5905013 ], [ 127.0309451, 37.5904546 ], [ 127.0309451, 37.5903164 ], [ 127.0307863, 37.5901928 ], [ 127.0307148, 37.5901428 ], [ 127.0306128, 37.5900748 ], [ 127.0305213, 37.5900401 ], [ 127.0304602, 37.5900727 ], [ 127.0302654, 37.5898282 ], [ 127.0304483, 37.5895522 ], [ 127.0303348, 37.5893488 ], [ 127.0302187, 37.5889062 ], [ 127.0302357, 37.5888203 ], [ 127.0303752, 37.5887428 ], [ 127.0302971, 37.5885091 ], [ 127.0303415, 37.5882839 ], [ 127.0305188, 37.5881503 ], [ 127.0305328, 37.587992 ], [ 127.0304891, 37.5879237 ], [ 127.0303964, 37.5877706 ], [ 127.0304062, 37.5876134 ], [ 127.0304382, 37.5873727 ], [ 127.0299062, 37.586842 ], [ 127.0299914, 37.5866854 ], [ 127.0301711, 37.586753 ], [ 127.0302395, 37.5866943 ], [ 127.0302839, 37.586705 ], [ 127.0303714, 37.5865476 ], [ 127.0303889, 37.5865476 ], [ 127.0309333, 37.5865426 ], [ 127.0309376, 37.5864518 ], [ 127.031605, 37.5864829 ], [ 127.0321575, 37.5865035 ], [ 127.0321542, 37.5865757 ], [ 127.0323358, 37.5865767 ], [ 127.0323794, 37.5865651 ], [ 127.0324008, 37.5865471 ], [ 127.0324051, 37.5865169 ], [ 127.0324756, 37.5865157 ], [ 127.0325717, 37.5865189 ], [ 127.0326338, 37.5865207 ], [ 127.032776, 37.5866179 ], [ 127.0328574, 37.5866822 ], [ 127.0341264, 37.5879148 ], [ 127.0355153, 37.5892256 ], [ 127.0358496, 37.589664 ], [ 127.0360722, 37.5902352 ], [ 127.036112, 37.5903666 ], [ 127.0361506, 37.5912575 ], [ 127.036157, 37.5916217 ], [ 127.0361597, 37.5917291 ], [ 127.0359668, 37.5917799 ], [ 127.0359822, 37.5921583 ], [ 127.0360193, 37.592323 ], [ 127.035922, 37.5923676 ], [ 127.0356826, 37.5923921 ], [ 127.0356605, 37.5924357 ], [ 127.0355655, 37.5924369 ], [ 127.035468, 37.5924052 ], [ 127.0353383, 37.5923641 ], [ 127.0350184, 37.592148 ], [ 127.0347648, 37.5920125 ], [ 127.0346183, 37.5919434 ], [ 127.0342639, 37.5917342 ], [ 127.0342094, 37.5916917 ], [ 127.0340247, 37.5915984 ], [ 127.0338271, 37.5915192 ], [ 127.0335202, 37.5914134 ], [ 127.0333122, 37.5913409 ], [ 127.0328708, 37.5923352 ], [ 127.032408, 37.5923938 ], [ 127.0328133, 37.5915334 ], [ 127.0329393, 37.5913193 ], [ 127.0329775, 37.5912371 ], [ 127.0322866, 37.591031 ], [ 127.0319977, 37.5909455 ], [ 127.0317799, 37.5909298 ], [ 127.031562, 37.5909312 ], [ 127.0314361, 37.5909903 ], [ 127.031267, 37.5910964 ], [ 127.0310578, 37.5911751 ], [ 127.0308512, 37.5912027 ], [ 127.0306922, 37.5911737 ], [ 127.0304908, 37.5911374 ], [ 127.0300752, 37.5911961 ], [ 127.0298143, 37.5913241 ], [ 127.0295993, 37.5914896 ], [ 127.0293082, 37.5917138 ], [ 127.0292223, 37.5918155 ], [ 127.0291746, 37.591884 ], [ 127.0291381, 37.5919657 ], [ 127.0290942, 37.5920937 ], [ 127.029063, 37.5921411 ], [ 127.0290445, 37.5921643 ], [ 127.0290112, 37.59219 ], [ 127.0289663, 37.5922119 ], [ 127.0289087, 37.592227 ], [ 127.0288275, 37.5922337 ], [ 127.0287567, 37.5922411 ], [ 127.028684, 37.592253 ], [ 127.028616, 37.592282 ], [ 127.0285583, 37.5923132 ], [ 127.0285026, 37.5923481 ], [ 127.028461, 37.5923878 ], [ 127.0284305, 37.59242 ], [ 127.0283864, 37.5924846 ], [ 127.02836, 37.5925471 ], [ 127.0283159, 37.5926861 ], [ 127.0282895, 37.5927471 ], [ 127.0282538, 37.592795 ], [ 127.0282249, 37.5928251 ], [ 127.0281874, 37.5928567 ], [ 127.0281325, 37.5928864 ], [ 127.0280528, 37.5929152 ], [ 127.0279604, 37.5929333 ], [ 127.0278822, 37.592936 ], [ 127.0277855, 37.5929309 ], [ 127.0275003, 37.5929219 ], [ 127.02739, 37.5929489 ], [ 127.0273105, 37.5929743 ], [ 127.027249, 37.5930045 ], [ 127.0271578, 37.593082 ], [ 127.0270673, 37.5932003 ], [ 127.0269436, 37.5934208 ], [ 127.0268352, 37.5936391 ], [ 127.0267553, 37.5938777 ], [ 127.0266858, 37.594117 ], [ 127.0266418, 37.594218 ], [ 127.0266147, 37.5942829 ], [ 127.0265798, 37.594339 ], [ 127.0265286, 37.5943871 ], [ 127.0264584, 37.5944305 ], [ 127.0263891, 37.5944572 ], [ 127.0263185, 37.5944717 ], [ 127.026039, 37.5944954 ], [ 127.0254032, 37.594205 ], [ 127.0254527, 37.5940657 ], [ 127.025304, 37.5939606 ], [ 127.0252201, 37.5938824 ], [ 127.0246259, 37.5934062 ], [ 127.0245821, 37.5933605 ], [ 127.024135, 37.5928302 ], [ 127.0240442, 37.5926924 ], [ 127.0239581, 37.5925378 ], [ 127.023898, 37.5924231 ], [ 127.0238698, 37.5923279 ], [ 127.0238465, 37.5922314 ], [ 127.0238388, 37.5921018 ], [ 127.0238286, 37.5917857 ], [ 127.023826, 37.591656 ], [ 127.0238284, 37.5913763 ], [ 127.0238302, 37.5912113 ], [ 127.023839, 37.5911456 ], [ 127.0238691, 37.5909832 ], [ 127.0238913, 37.5909082 ], [ 127.0239251, 37.5908283 ], [ 127.0239803, 37.590733 ], [ 127.0240163, 37.5906872 ], [ 127.0240453, 37.5906469 ], [ 127.0241068, 37.5906016 ], [ 127.0246352, 37.590391 ], [ 127.0246857, 37.5903641 ], [ 127.0245785, 37.5901527 ], [ 127.0245118, 37.5900356 ], [ 127.0245041, 37.5900075 ], [ 127.0245026, 37.5899784 ], [ 127.0245143, 37.5899241 ], [ 127.024544, 37.5898638 ], [ 127.0245898, 37.589803 ], [ 127.0248581, 37.589544 ], [ 127.0251449, 37.5892894 ], [ 127.0252946, 37.5889415 ], [ 127.0253147, 37.5889303 ], [ 127.0255181, 37.5888621 ], [ 127.025679, 37.5888068 ], [ 127.0256982, 37.5888025 ], [ 127.0257847, 37.588715 ], [ 127.0258104, 37.5886858 ], [ 127.0259944, 37.5881982 ], [ 127.025993, 37.5880835 ], [ 127.0259689, 37.5879868 ], [ 127.0255895, 37.5874116 ], [ 127.0254883, 37.5871772 ], [ 127.0254327, 37.5869872 ], [ 127.0253592, 37.5864818 ], [ 127.0253573, 37.586381 ], [ 127.0247825, 37.5861152 ], [ 127.0244882, 37.5859755 ], [ 127.0244439, 37.5859266 ], [ 127.0243947, 37.5855221 ], [ 127.0243112, 37.5853989 ], [ 127.0242488, 37.585353 ], [ 127.0238509, 37.5851581 ], [ 127.0237965, 37.5850023 ] ] ] } }
]
}
